NORAD_CAT_ID,OBJECT_NAME,OBJECT_TYPE,EPOCH,MEAN_MOTION,ECCENTRICITY,INCLINATION,RA_OF_ASC_NODE,ARG_OF_PERICENTER,MEAN_ANOMALY,BSTAR,MEAN_MOTION_DOT,MEAN_MOTION_DDOT,TLE_LINE0,TLE_LINE1,TLE_LINE2,SEMIMAJOR_AXIS,PERIOD,APOGEE,PERIGEE,DECAYED
53849.0,STARLINK-4770,PAYLOAD,2022-10-15 22:00:01,15.73200186,0.0001196,53.2148,125.7871,97.3833,239.5003,9.492e-05,0.00012722,0.0,0 STARLINK-4770,1 53849U 22114AH  22288.91668981  .00012722  00000-0  94920-4 0  9991,2 53849  53.2148 125.7871 0001196  97.3833 239.5003 15.73200186  1304,6727.895,91.533,350.564,348.955,0.0
53849.0,STARLINK-4770,PAYLOAD,2022-10-16 14:00:01,15.73159616,0.0001132,53.2152,122.4861,110.3078,44.3301,0.00046915,0.00065623,0.0,0 STARLINK-4770,1 53849U 22114AH  22289.58334491  .00065623  00000-0  46915-3 0  9999,2 53849  53.2152 122.4861 0001132 110.3078  44.3301 15.73159616  1303,6728.01,91.536,350.63699999999994,349.11400000000015,0.0
53849.0,STARLINK-4770,PAYLOAD,2022-10-16 22:00:00,15.73179624,0.0001147999999999,53.2153,120.8388,90.7339,152.8195,0.00011369,0.00015351,0.0,0 STARLINK-4770,1 53849U 22114AH  22289.91667824  .00015351  00000-0  11369-3 0  9993,2 53849  53.2153 120.8388 0001148  90.7339 152.8195 15.73179624  1305,6727.953,91.534,350.591,349.046,0.0
53849.0,STARLINK-4770,PAYLOAD,2022-10-17 06:00:00,15.73200139,0.0001165,53.2158,119.1873,97.0898,235.3717,0.00027982,0.00038832,0.0,0 STARLINK-4770,1 53849U 22114AH  22290.25001157  .00038832  00000-0  27982-3 0  9990,2 53849  53.2158 119.1873 0001165  97.0898 235.3717 15.73200139  5014,6727.895,91.533,350.5440000000001,348.976,0.0
53849.0,STARLINK-4770,PAYLOAD,2022-10-17 14:00:01,15.73252341,0.0001291999999999,53.2154,117.5376,102.0799,319.3629,-4.1694e-06,-1.207e-05,0.0,0 STARLINK-4770,1 53849U 22114AH  22290.58334491 -.00001207  00000-0 -41694-5 0  9992,2 53849  53.2154 117.5376 0001292 102.0799 319.3629 15.73252341  5060,6727.746,91.53,350.48,348.742,0.0
53849.0,STARLINK-4770,PAYLOAD,2022-10-17 22:00:00,15.73236935,0.0001255,53.2149,115.8904,86.7472,63.6548,-0.00020951,-0.00029965,0.0,0 STARLINK-4770,1 53849U 22114AH  22290.91667824 -.00029965  00000-0 -20951-3 0  9990,2 53849  53.2149 115.8904 0001255  86.7472  63.6548 15.73236935  5124,6727.79,91.531,350.499,348.811,0.0
53849.0,STARLINK-4770,PAYLOAD,2022-10-18 14:00:01,15.73160042,0.0001088,53.215,112.5895,97.1275,231.1426,0.00015185,0.00020707,0.0,0 STARLINK-4770,1 53849U 22114AH  22291.58334491  .00020707  00000-0  15185-3 0  9991,2 53849  53.2150 112.5895 0001088  97.1275 231.1426 15.73160042  5223,6728.009,91.536,350.606,349.142,0.0
53849.0,STARLINK-4770,PAYLOAD,2022-10-18 22:00:00,15.732024,0.0001155,53.2176,110.94,93.8878,323.3317,2.5221e-05,2.921e-05,0.0,0 STARLINK-4770,1 53849U 22114AH  22291.91667824  .00002921  00000-0  25221-4 0  9998,2 53849  53.2176 110.9400 0001155  93.8878 323.3317 15.73202400  1305,6727.888000000001,91.533,350.53,348.976,0.0
53849.0,STARLINK-4770,PAYLOAD,2022-10-19 08:00:01,15.73201592,0.0001054999999999,53.2149,108.8779,87.0154,171.3083,0.00013872,0.00018894,0.0,0 STARLINK-4770,1 53849U 22114AH  22292.33334491  .00018894  00000-0  13872-3 0  9990,2 53849  53.2149 108.8779 0001055  87.0154 171.3083 15.73201592  5341,6727.891,91.533,350.465,349.046,0.0
53849.0,STARLINK-4770,PAYLOAD,2022-10-19 14:00:01,15.73218032,0.0001136,53.2148,107.6413,87.8296,147.1909,0.00026933,0.00037376,0.0,0 STARLINK-4770,1 53849U 22114AH  22292.58334491  .00037376  00000-0  26933-3 0  9995,2 53849  53.2148 107.6413 0001136  87.8296 147.1909 15.73218032  1304,6727.844,91.532,350.473,348.944,0.0
53849.0,STARLINK-4770,PAYLOAD,2022-10-19 22:00:00,15.732633300000002,0.0001052,53.216,105.9928,84.4102,239.5894,-0.00072159,-0.00100953,0.0,0 STARLINK-4770,1 53849U 22114AH  22292.91667824 -.00100953  00000-0 -72159-3 0  9996,2 53849  53.2160 105.9928 0001052  84.4102 239.5894 15.73263330  1306,6727.715,91.529,350.287,348.872,0.0
53849.0,STARLINK-4770,PAYLOAD,2022-10-20 14:00:01,15.73192792,0.0001222,53.215,102.6918,81.8581,60.0493,-0.00015011,-0.00021626,0.0,0 STARLINK-4770,1 53849U 22114AH  22293.58334491 -.00021626  00000-0 -15011-3 0  9994,2 53849  53.2150 102.6918 0001222  81.8581  60.0493 15.73192792  1304,6727.916,91.534,350.603,348.959,0.0
53849.0,STARLINK-4770,PAYLOAD,2022-10-20 22:00:00,15.7314109,0.0001358,53.2149,101.0445,68.0879,162.7087,0.00074687,0.00105254,0.0,0 STARLINK-4770,1 53849U 22114AH  22293.91667824  .00105254  00000-0  74687-3 0  9992,2 53849  53.2149 101.0445 0001358  68.0879 162.7087 15.73141090  1301,6728.063,91.537,350.842,349.014,0.0
53849.0,STARLINK-4770,PAYLOAD,2022-10-21 06:00:00,15.73239058,0.0001118,53.2152,99.3925,75.0323,244.7,-0.00021408,-0.00030605,0.0,0 STARLINK-4770,1 53849U 22114AH  22294.25001157 -.00030605  00000-0 -21408-3 0  9993,2 53849  53.2152  99.3925 0001118  75.0323 244.7000 15.73239058  5642,6727.784000000002,91.531,350.401,348.897,0.0
53849.0,STARLINK-4770,PAYLOAD,2022-10-21 14:00:01,15.73245631,0.0001107999999999,53.2149,97.7439,70.2583,338.4761,0.00012245,0.00016632,0.0,0 STARLINK-4770,1 53849U 22114AH  22294.58334491  .00016632  00000-0  12245-3 0  9990,2 53849  53.2149  97.7439 0001108  70.2583 338.4761 15.73245631  1302,6727.765,91.531,350.376,348.885,0.0
53849.0,STARLINK-4770,PAYLOAD,2022-10-21 22:00:00,15.73231609,0.0001233,53.2135,96.0955,56.6965,81.0028,-0.00033705,-0.00047718,0.0,0 STARLINK-4770,1 53849U 22114AH  22294.91667824 -.00047718  00000-0 -33705-3 0  9991,2 53849  53.2135  96.0955 0001233  56.6965  81.0028 15.73231609  5753,6727.805,91.531,350.5,348.841,0.0
53849.0,STARLINK-4770,PAYLOAD,2022-10-22 14:00:01,15.73248049,0.0001105,53.2138,92.7947,61.243,254.2982,-0.00039237,-0.00055436,0.0,0 STARLINK-4770,1 53849U 22114AH  22295.58334491 -.00055436  00000-0 -39237-3 0  9998,2 53849  53.2138  92.7947 0001105  61.2430 254.2982 15.73248049  1303,6727.7580000000025,91.53,350.367,348.88,0.0
53849.0,STARLINK-4770,PAYLOAD,2022-10-22 22:00:00,15.73207008,0.0001255,53.2137,91.1462,47.5001,357.0282,0.00010121,0.00013611,0.0,0 STARLINK-4770,1 53849U 22114AH  22295.91667824  .00013611  00000-0  10121-3 0  9992,2 53849  53.2137  91.1462 0001255  47.5001 357.0282 15.73207008  1309,6727.875,91.533,350.585,348.896,0.0
53849.0,STARLINK-4770,PAYLOAD,2022-10-23 00:00:02,15.73215099,0.0001235,53.2137,90.7333,47.0738,109.7525,1.1961e-05,1.06e-05,0.0,0 STARLINK-4770,1 53849U 22114AH  22296.00002315  .00001060  00000-0  11961-4 0  9990,2 53849  53.2137  90.7333 0001235  47.0738 109.7525 15.73215099  5924,6727.852,91.532,350.548,348.886,0.0
53849.0,STARLINK-4770,PAYLOAD,2022-10-23 14:00:01,15.73291109,0.0001209,53.2139,87.8457,51.1143,171.3058,-0.00022555,-0.00032277,0.0,0 STARLINK-4770,1 53849U 22114AH  22296.58334491 -.00032277  00000-0 -22555-3 0  9992,2 53849  53.2139  87.8457 0001209  51.1143 171.3058 15.73291109  1307,6727.635,91.528,350.314,348.68699999999984,0.0
53849.0,STARLINK-4770,PAYLOAD,2022-10-23 22:00:00,15.73266535,0.000137,53.2133,86.197,41.6309,269.81,-0.00065593,-0.00091937,0.0,0 STARLINK-4770,1 53849U 22114AH  22296.91667824 -.00091937  00000-0 -65593-3 0  9995,2 53849  53.2133  86.1970 0001370  41.6309 269.8100 15.73266535  1306,6727.705,91.529,350.492,348.649,0.0
53849.0,STARLINK-4770,PAYLOAD,2022-10-24 06:00:00,15.73161955,0.0001190999999999,53.2134,84.5451,51.9668,348.4593,-0.00083133,-0.00115514,0.0,0 STARLINK-4770,1 53849U 22114AH  22297.25001157 -.00115514  00000-0 -83133-3 0  9992,2 53849  53.2134  84.5451 0001191  51.9668 348.4593 15.73161955  6110,6728.004,91.535,350.67,349.06699999999995,0.0
53849.0,STARLINK-4770,PAYLOAD,2022-10-24 14:00:01,15.730684599999998,0.0001396999999999,53.2138,82.8967,49.8631,79.4073,0.00028056,0.00038716,0.0,0 STARLINK-4770,1 53849U 22114AH  22297.58334491  .00038716  00000-0  28056-3 0  9997,2 53849  53.2138  82.8967 0001397  49.8631  79.4073 15.73068460  1308,6728.27,91.541,351.075,349.195,0.0
53849.0,STARLINK-4770,PAYLOAD,2022-10-24 22:00:00,15.73101639,0.0001567,53.2138,81.2483,43.4358,174.6117,0.0012014,0.00170738,0.0,0 STARLINK-4770,1 53849U 22114AH  22297.91667824  .00170738  00000-0  12014-2 0  9990,2 53849  53.2138  81.2483 0001567  43.4358 174.6117 15.73101639  1302,6728.176,91.539,351.095,348.986,0.0
53849.0,STARLINK-4770,PAYLOAD,2022-10-25 00:00:00,15.73175551,0.0001582,53.2139,80.8354,43.8636,286.3778,0.00044049,0.0006159,0.0,0 STARLINK-4770,1 53849U 22114AH  22298.00001157  .00061590  00000-0  44049-3 0  9991,2 53849  53.2139  80.8354 0001582  43.8636 286.3778 15.73175551  6230,6727.965,91.535,350.894,348.766,0.0
53849.0,STARLINK-4770,PAYLOAD,2022-10-25 14:00:01,15.73234337,0.0001485,53.2141,77.9485,39.1743,356.7008,-0.00047905,-0.00067415,0.0,0 STARLINK-4770,1 53849U 22114AH  22298.58334491 -.00067415  00000-0 -47905-3 0  9992,2 53849  53.2141  77.9485 0001485  39.1743 356.7008 15.73234337  6320,6727.797,91.531,350.661,348.663,0.0
53849.0,STARLINK-4770,PAYLOAD,2022-10-25 22:00:01,15.73154634,0.0001513,53.2136,76.2995,29.9895,94.8984,0.00041776,0.00058304,0.0,0 STARLINK-4770,1 53849U 22114AH  22298.91668981  .00058304  00000-0  41776-3 0  9998,2 53849  53.2136  76.2995 0001513  29.9895  94.8984 15.73154634  1306,6728.025,91.536,350.907,348.872,0.0
53849.0,STARLINK-4770,PAYLOAD,2022-10-26 06:00:00,15.73195433,0.0001303,53.2138,74.648,34.8513,178.8769,0.00030074,0.00041789,0.0,0 STARLINK-4770,1 53849U 22114AH  22299.25001157  .00041789  00000-0  30074-3 0  9990,2 53849  53.2138  74.6480 0001303  34.8513 178.8769 15.73195433  6433,6727.908,91.533,350.65,348.897,0.0
53849.0,STARLINK-4770,PAYLOAD,2022-10-26 14:00:01,15.73191665,0.0001603,53.2142,72.9999,37.0337,265.6297,0.00015253,0.00020832,0.0,0 STARLINK-4770,1 53849U 22114AH  22299.58334491  .00020832  00000-0  15253-3 0  9994,2 53849  53.2142  72.9999 0001603  37.0337 265.6297 15.73191665  1301,6727.919,91.534,350.862,348.705,0.0
